{"type": "FeatureCollection", "features": [ {"type": "Feature", "properties": {"norad_id": 33980, "name": "COSMOS 2251 DEB", "group": "cosmos-2251-debris", "lat": -48.288737033193755, "lon": 33.56660096502912, "alt_km": 711.5395676577227, "timestamp": "2025-12-16T10:53:45.864307+00:00", "meta": {"OBJECT_NAME": "COSMOS 2251 DEB", "OBJECT_ID": "1993-036FP", "EPOCH": "2025-12-15T22:46:55.919712", "MEAN_MOTION": 14.58672433, "ECCENTRICITY": 0.00284993, "INCLINATION": 74.0221, "RA_OF_ASC_NODE": 53.2789, "ARG_OF_PERICENTER": 197.9624, "MEAN_ANOMALY": 341.4284, "EPHEMERIS_TYPE": 0, "CLASSIFICATION_TYPE": "U", "NORAD_CAT_ID": 33980, "ELEMENT_SET_NO": 999, "REV_AT_EPOCH": 88841, "BSTAR": 0.00045335063, "MEAN_MOTION_DOT": 2.096e-05, "MEAN_MOTION_DDOT": 0}, "tle": {"line1": "1 33980U 93036FP  25349.94925833  .00002096  00000+0  45335-3 0  9999", "line2": "2 33980  74.0221  53.2789 0028499 197.9624 341.4284 14.58672433888413"}}, "geometry": {"type": "Point", "coordinates": [33.56660096502912, -48.288737033193755]}}, {"type": "Feature", "properties": {"norad_id": 33982, "name": "COSMOS 2251 DEB", "group": "cosmos-2251-debris", "lat": -4.629538112820556, "lon": 174.18607998941653, "alt_km": 740.8214638669979, "timestamp": "2025-12-16T10:53:45.864317+00:00", "meta": {"OBJECT_NAME": "COSMOS 2251 DEB", "OBJECT_ID": "1993-036FR", "EPOCH": "2025-12-15T09:54:14.249088", "MEAN_MOTION": 14.60222839, "ECCENTRICITY": 0.00751478, "INCLINATION": 74.0708, "RA_OF_ASC_NODE": 354.8438, "ARG_OF_PERICENTER": 38.5509, "MEAN_ANOMALY": 73.8354, "EPHEMERIS_TYPE": 0, "CLASSIFICATION_TYPE": "U", "NORAD_CAT_ID": 33982, "ELEMENT_SET_NO": 999, "REV_AT_EPOCH": 89198, "BSTAR": 0.00036230132, "MEAN_MOTION_DOT": 1.787e-05, "MEAN_MOTION_DDOT": 0}, "tle": {"line1": "1 33982U 93036FR  25349.41266492  .00001787  00000+0  36230-3 0  9992", "line2": "2 33982  74.0708 354.8438 0075147  38.5509  73.8354 14.60222839891984"}}, "geometry": {"type": "Point", "coordinates": [174.18607998941653, -4.629538112820556]}}, {"type": "Feature", "properties": {"norad_id": 33983, "name": "COSMOS 2251 DEB", "group": "cosmos-2251-debris", "lat": -10.721203566051923, "lon": 136.96557584432, "alt_km": 731.5514494102772, "timestamp": "2025-12-16T10:53:45.864327+00:00", "meta": {"OBJECT_NAME": "COSMOS 2251 DEB", "OBJECT_ID": "1993-036FS", "EPOCH": "2025-12-15T20:44:40.926048", "MEAN_MOTION": 14.50684387, "ECCENTRICITY": 0.00212737, "INCLINATION": 74.0492, "RA_OF_ASC_NODE": 141.1768, "ARG_OF_PERICENTER": 243.8419, "MEAN_ANOMALY": 266.762, "EPHEMERIS_TYPE": 0, "CLASSIFICATION_TYPE": "U", "NORAD_CAT_ID": 33983, "ELEMENT_SET_NO": 999, "REV_AT_EPOCH": 88674, "BSTAR": 0.00043549642, "MEAN_MOTION_DOT": 1.688e-05, "MEAN_MOTION_DDOT": 0}, "tle": {"line1": "1 33983U 93036FS  25349.86436257  .00001688  00000+0  43550-3 0  9993", "line2": "2 33983  74.0492 141.1768 0021273 243.8419 266.7620 14.50684387886746"}}, "geometry": {"type": "Point", "coordinates": [136.96557584432, -10.721203566051923]}}, {"type": "Feature", "properties": {"norad_id": 33984, "name": "COSMOS 2251 DEB", "group": "cosmos-2251-debris", "lat": -52.4011183837168, "lon": -41.93261090270095, "alt_km": 689.0389821469935, "timestamp": "2025-12-16T10:53:45.864338+00:00", "meta": {"OBJECT_NAME": "COSMOS 2251 DEB", "OBJECT_ID": "1993-036FT", "EPOCH": "2025-12-15T17:58:16.421088", "MEAN_MOTION": 14.6639153, "ECCENTRICITY": 0.00229328, "INCLINATION": 74.0091, "RA_OF_ASC_NODE": 341.2913, "ARG_OF_PERICENTER": 178.5851, "MEAN_ANOMALY": 4.5304, "EPHEMERIS_TYPE": 0, "CLASSIFICATION_TYPE": "U", "NORAD_CAT_ID": 33984, "ELEMENT_SET_NO": 999, "REV_AT_EPOCH": 89110, "BSTAR": 0.00056029013, "MEAN_MOTION_DOT": 3.079e-05, "MEAN_MOTION_DDOT": 0}, "tle": {"line1": "1 33984U 93036FT  25349.74880117  .00003079  00000+0  56029-3 0  9990", "line2": "2 33984  74.0091 341.2913 0022932 178.5851   4.5304 14.66391530891109"}}, "geometry": {"type": "Point", "coordinates": [-41.93261090270095, -52.4011183837168]}}, {"type": "Feature", "properties": {"norad_id": 33986, "name": "COSMOS 2251 DEB", "group": "cosmos-2251-debris", "lat": 1.779597570939873, "lon": -63.71675908750554, "alt_km": 721.4134270782042, "timestamp": "2025-12-16T10:53:45.864348+00:00", "meta": {"OBJECT_NAME": "COSMOS 2251 DEB", "OBJECT_ID": "1993-036FV", "EPOCH": "2025-12-15T21:50:14.180640", "MEAN_MOTION": 14.43222372, "ECCENTRICITY": 0.0040656, "INCLINATION": 74.0366, "RA_OF_ASC_NODE": 296.7839, "ARG_OF_PERICENTER": 8.7733, "MEAN_ANOMALY": 47.3685, "EPHEMERIS_TYPE": 0, "CLASSIFICATION_TYPE": "U", "NORAD_CAT_ID": 33986, "ELEMENT_SET_NO": 999, "REV_AT_EPOCH": 88074, "BSTAR": 0.00057535823, "MEAN_MOTION_DOT": 1.928e-05, "MEAN_MOTION_DDOT": 0}, "tle": {"line1": "1 33986U 93036FV  25349.90988635  .00001928  00000+0  57536-3 0  9999", "line2": "2 33986  74.0366 296.7839 0040656   8.7733  47.3685 14.43222372880740"}}, "geometry": {"type": "Point", "coordinates": [-63.71675908750554, 1.779597570939873]}}, {"type": "Feature", "properties": {"norad_id": 33990, "name": "COSMOS 2251 DEB", "group": "cosmos-2251-debris", "lat": -59.74807734770159, "lon": 129.6534113460438, "alt_km": 899.6418387566055, "timestamp": "2025-12-16T10:53:45.864358+00:00", "meta": {"OBJECT_NAME": "COSMOS 2251 DEB", "OBJECT_ID": "1993-036FZ", "EPOCH": "2025-12-15T21:29:14.263872", "MEAN_MOTION": 13.49998696, "ECCENTRICITY": 0.04075114, "INCLINATION": 73.9283, "RA_OF_ASC_NODE": 280.9283, "ARG_OF_PERICENTER": 300.67, "MEAN_ANOMALY": 112.8186, "EPHEMERIS_TYPE": 0, "CLASSIFICATION_TYPE": "U", "NORAD_CAT_ID": 33990, "ELEMENT_SET_NO": 999, "REV_AT_EPOCH": 82772, "BSTAR": 0.0010489494, "MEAN_MOTION_DOT": 1.094e-05, "MEAN_MOTION_DDOT": 0}, "tle": {"line1": "1 33990U 93036FZ  25349.89530398  .00001094  00000+0  10489-2 0  9990", "line2": "2 33990  73.9283 280.9283 0407511 300.6700 112.8186 13.49998696827721"}}, "geometry": {"type": "Point", "coordinates": [129.6534113460438, -59.74807734770159]}}, {"type": "Feature", "properties": {"norad_id": 33992, "name": "COSMOS 2251 DEB", "group": "cosmos-2251-debris", "lat": 13.944509896434726, "lon": 146.49353365959556, "alt_km": 666.0208796178867, "timestamp": "2025-12-16T10:53:45.864368+00:00", "meta": {"OBJECT_NAME": "COSMOS 2251 DEB", "OBJECT_ID": "1993-036GB", "EPOCH": "2025-12-15T22:59:24.503136", "MEAN_MOTION": 14.66241532, "ECCENTRICITY": 0.00516517, "INCLINATION": 74.0238, "RA_OF_ASC_NODE": 331.5291, "ARG_OF_PERICENTER": 88.408, "MEAN_ANOMALY": 338.9185, "EPHEMERIS_TYPE": 0, "CLASSIFICATION_TYPE": "U", "NORAD_CAT_ID": 33992, "ELEMENT_SET_NO": 999, "REV_AT_EPOCH": 89172, "BSTAR": 0.00054877554, "MEAN_MOTION_DOT": 3.053e-05, "MEAN_MOTION_DDOT": 0}, "tle": {"line1": "1 33992U 93036GB  25349.95792249  .00003053  00000+0  54878-3 0  9992", "line2": "2 33992  74.0238 331.5291 0051651  88.4080 338.9185 14.66241532891720"}}, "geometry": {"type": "Point", "coordinates": [146.49353365959556, 13.944509896434726]}}, {"type": "Feature", "properties": {"norad_id": 33994, "name": "COSMOS 2251 DEB", "group": "cosmos-2251-debris", "lat": 69.26052018685412, "lon": -45.54932874553249, "alt_km": 761.473254958195, "timestamp": "2025-12-16T10:53:45.864378+00:00", "meta": {"OBJECT_NAME": "COSMOS 2251 DEB", "OBJECT_ID": "1993-036GD", "EPOCH": "2025-12-15T23:16:18.605856", "MEAN_MOTION": 14.41216591, "ECCENTRICITY": 0.00237521, "INCLINATION": 74.0415, "RA_OF_ASC_NODE": 184.4326, "ARG_OF_PERICENTER": 318.207, "MEAN_ANOMALY": 153.0863, "EPHEMERIS_TYPE": 0, "CLASSIFICATION_TYPE": "U", "NORAD_CAT_ID": 33994, "ELEMENT_SET_NO": 999, "REV_AT_EPOCH": 88466, "BSTAR": 8.8811165e-05, "MEAN_MOTION_DOT": 2.61e-06, "MEAN_MOTION_DDOT": 0}, "tle": {"line1": "1 33994U 93036GD  25349.96965979  .00000261  00000+0  88811-4 0  9990", "line2": "2 33994  74.0415 184.4326 0023752 318.2070 153.0863 14.41216591884661"}}, "geometry": {"type": "Point", "coordinates": [-45.54932874553249, 69.26052018685412]}}, {"type": "Feature", "properties": {"norad_id": 33995, "name": "COSMOS 2251 DEB", "group": "cosmos-2251-debris", "lat": 73.78687731304379, "lon": -146.80766926704592, "alt_km": 732.3438242288048, "timestamp": "2025-12-16T10:53:45.864388+00:00", "meta": {"OBJECT_NAME": "COSMOS 2251 DEB", "OBJECT_ID": "1993-036GE", "EPOCH": "2025-12-15T17:43:53.245344", "MEAN_MOTION": 14.34789623, "ECCENTRICITY": 0.00598921, "INCLINATION": 74.0609, "RA_OF_ASC_NODE": 113.8646, "ARG_OF_PERICENTER": 127.4558, "MEAN_ANOMALY": 233.2064, "EPHEMERIS_TYPE": 0, "CLASSIFICATION_TYPE": "U", "NORAD_CAT_ID": 33995, "ELEMENT_SET_NO": 999, "REV_AT_EPOCH": 87562, "BSTAR": 0.00069637998, "MEAN_MOTION_DOT": 1.99e-05, "MEAN_MOTION_DDOT": 0}, "tle": {"line1": "1 33995U 93036GE  25349.73881071  .00001990  00000+0  69638-3 0  9991", "line2": "2 33995  74.0609 113.8646 0059892 127.4558 233.2064 14.34789623875626"}}, "geometry": {"type": "Point", "coordinates": [-146.80766926704592, 73.78687731304379]}}, {"type": "Feature", "properties": {"norad_id": 33999, "name": "COSMOS 2251 DEB", "group": "cosmos-2251-debris", "lat": -1.3388626130187364, "lon": 43.75552348754415, "alt_km": 607.2654578649144, "timestamp": "2025-12-16T10:53:45.864399+00:00", "meta": {"OBJECT_NAME": "COSMOS 2251 DEB", "OBJECT_ID": "1993-036GJ", "EPOCH": "2025-12-15T17:54:00.897408", "MEAN_MOTION": 14.83431625, "ECCENTRICITY": 0.00444384, "INCLINATION": 73.9189, "RA_OF_ASC_NODE": 224.7811, "ARG_OF_PERICENTER": 119.4893, "MEAN_ANOMALY": 241.0728, "EPHEMERIS_TYPE": 0, "CLASSIFICATION_TYPE": "U", "NORAD_CAT_ID": 33999, "ELEMENT_SET_NO": 999, "REV_AT_EPOCH": 89295, "BSTAR": 0.0007912315, "MEAN_MOTION_DOT": 6.581e-05, "MEAN_MOTION_DDOT": 0}, "tle": {"line1": "1 33999U 93036GJ  25349.74584372  .00006581  00000+0  79123-3 0  9991", "line2": "2 33999  73.9189 224.7811 0044438 119.4893 241.0728 14.83431625892959"}}, "geometry": {"type": "Point", "coordinates": [43.75552348754415, -1.3388626130187364]}}]}